[
  {
    "OBJECT_NAME": "STRATOSAT-TK 1 (RS52S)",
    "OBJECT_ID": "2023-091B",
    "EPOCH": "2025-06-28T19:14:33.614016",
    "MEAN_MOTION": 15.41398177,
    "ECCENTRICITY": 0.0007698,
    "INCLINATION": 97.5512,
    "RA_OF_ASC_NODE": 243.9336,
    "ARG_OF_PERICENTER": 227.2774,
    "MEAN_ANOMALY": 132.7825,
    "EPHEMERIS_TYPE": 0,
    "CLASSIFICATION_TYPE": "U",
    "NORAD_CAT_ID": 57167,
    "ELEMENT_SET_NO": 999,
    "REV_AT_EPOCH": 11097,
    "BSTAR": 0.00062887,
    "MEAN_MOTION_DOT": 0.00026268,
    "MEAN_MOTION_DDOT": 0
  },
  {
    "OBJECT_NAME": "UMKA 1 (RS40S)",
    "OBJECT_ID": "2023-091G",
    "EPOCH": "2025-06-28T21:17:37.903200",
    "MEAN_MOTION": 15.15526221,
    "ECCENTRICITY": 0.0012693,
    "INCLINATION": 97.5565,
    "RA_OF_ASC_NODE": 235.1699,
    "ARG_OF_PERICENTER": 266.6933,
    "MEAN_ANOMALY": 93.2847,
    "EPHEMERIS_TYPE": 0,
    "CLASSIFICATION_TYPE": "U",
    "NORAD_CAT_ID": 57172,
    "ELEMENT_SET_NO": 999,
    "REV_AT_EPOCH": 11040,
    "BSTAR": 0.00019215,
    "MEAN_MOTION_DOT": 3.58e-05,
    "MEAN_MOTION_DDOT": 0
  },
  {
    "OBJECT_NAME": "CUBESX-HSE 3 (RS42S)",
    "OBJECT_ID": "2023-091N",
    "EPOCH": "2025-06-28T19:10:59.894112",
    "MEAN_MOTION": 15.21029954,
    "ECCENTRICITY": 0.0011966,
    "INCLINATION": 97.5595,
    "RA_OF_ASC_NODE": 237.6105,
    "ARG_OF_PERICENTER": 252.442,
    "MEAN_ANOMALY": 107.5508,
    "EPHEMERIS_TYPE": 0,
    "CLASSIFICATION_TYPE": "U",
    "NORAD_CAT_ID": 57178,
    "ELEMENT_SET_NO": 999,
    "REV_AT_EPOCH": 11053,
    "BSTAR": 0.00025451,
    "MEAN_MOTION_DOT": 5.587e-05,
    "MEAN_MOTION_DDOT": 0
  },
  {
    "OBJECT_NAME": "MONITOR-3 (RS58S)",
    "OBJECT_ID": "2023-091Q",
    "EPOCH": "2025-06-28T20:20:26.186784",
    "MEAN_MOTION": 15.19340039,
    "ECCENTRICITY": 0.0012563,
    "INCLINATION": 97.559,
    "RA_OF_ASC_NODE": 236.8746,
    "ARG_OF_PERICENTER": 255.4915,
    "MEAN_ANOMALY": 104.4926,
    "EPHEMERIS_TYPE": 0,
    "CLASSIFICATION_TYPE": "U",
    "NORAD_CAT_ID": 57180,
    "ELEMENT_SET_NO": 999,
    "REV_AT_EPOCH": 11049,
    "BSTAR": 0.00025882,
    "MEAN_MOTION_DOT": 5.41e-05,
    "MEAN_MOTION_DDOT": 0
  },
  {
    "OBJECT_NAME": "MONITOR-4 (RS57S)",
    "OBJECT_ID": "2023-091S",
    "EPOCH": "2025-06-28T20:14:24.046368",
    "MEAN_MOTION": 15.19388582,
    "ECCENTRICITY": 0.0012578,
    "INCLINATION": 97.5585,
    "RA_OF_ASC_NODE": 236.8283,
    "ARG_OF_PERICENTER": 256.1702,
    "MEAN_ANOMALY": 103.8133,
    "EPHEMERIS_TYPE": 0,
    "CLASSIFICATION_TYPE": "U",
    "NORAD_CAT_ID": 57182,
    "ELEMENT_SET_NO": 999,
    "REV_AT_EPOCH": 11049,
    "BSTAR": 0.00026099,
    "MEAN_MOTION_DOT": 5.463e-05,
    "MEAN_MOTION_DDOT": 0
  },
  {
    "OBJECT_NAME": "MONITOR-2 (RS39S)",
    "OBJECT_ID": "2023-091U",
    "EPOCH": "2025-06-28T20:01:58.306368",
    "MEAN_MOTION": 15.14524248,
    "ECCENTRICITY": 0.0010779,
    "INCLINATION": 97.5594,
    "RA_OF_ASC_NODE": 235.3691,
    "ARG_OF_PERICENTER": 255.9273,
    "MEAN_ANOMALY": 104.0761,
    "EPHEMERIS_TYPE": 0,
    "CLASSIFICATION_TYPE": "U",
    "NORAD_CAT_ID": 57184,
    "ELEMENT_SET_NO": 999,
    "REV_AT_EPOCH": 11039,
    "BSTAR": 0.00017727,
    "MEAN_MOTION_DOT": 3.202e-05,
    "MEAN_MOTION_DDOT": 0
  },
  {
    "OBJECT_NAME": "SVYATOBOR 1 (RS60S)",
    "OBJECT_ID": "2023-091X",
    "EPOCH": "2025-06-28T19:37:47.916480",
    "MEAN_MOTION": 15.1917142,
    "ECCENTRICITY": 0.0009658,
    "INCLINATION": 97.5595,
    "RA_OF_ASC_NODE": 237.5475,
    "ARG_OF_PERICENTER": 244.8299,
    "MEAN_ANOMALY": 115.1934,
    "EPHEMERIS_TYPE": 0,
    "CLASSIFICATION_TYPE": "U",
    "NORAD_CAT_ID": 57187,
    "ELEMENT_SET_NO": 999,
    "REV_AT_EPOCH": 11053,
    "BSTAR": 0.00022114,
    "MEAN_MOTION_DOT": 4.585e-05,
    "MEAN_MOTION_DDOT": 0
  },
  {
    "OBJECT_NAME": "VIZARD-METEO (RS38S)",
    "OBJECT_ID": "2023-091Z",
    "EPOCH": "2025-06-28T20:08:09.313152",
    "MEAN_MOTION": 15.23845613,
    "ECCENTRICITY": 0.0008308,
    "INCLINATION": 97.5583,
    "RA_OF_ASC_NODE": 239.5868,
    "ARG_OF_PERICENTER": 234.0184,
    "MEAN_ANOMALY": 126.0283,
    "EPHEMERIS_TYPE": 0,
    "CLASSIFICATION_TYPE": "U",
    "NORAD_CAT_ID": 57189,
    "ELEMENT_SET_NO": 999,
    "REV_AT_EPOCH": 11067,
    "BSTAR": 0.00030094,
    "MEAN_MOTION_DOT": 7.19e-05,
    "MEAN_MOTION_DDOT": 0
  },
  {
    "OBJECT_NAME": "NANOZOND 1 (RS49S)",
    "OBJECT_ID": "2023-091AA",
    "EPOCH": "2025-06-28T19:14:36.292416",
    "MEAN_MOTION": 15.36492668,
    "ECCENTRICITY": 0.0005936,
    "INCLINATION": 97.5537,
    "RA_OF_ASC_NODE": 243.8141,
    "ARG_OF_PERICENTER": 218.0742,
    "MEAN_ANOMALY": 142.0083,
    "EPHEMERIS_TYPE": 0,
    "CLASSIFICATION_TYPE": "U",
    "NORAD_CAT_ID": 57190,
    "ELEMENT_SET_NO": 999,
    "REV_AT_EPOCH": 11096,
    "BSTAR": 0.00048363,
    "MEAN_MOTION_DOT": 0.00017165,
    "MEAN_MOTION_DDOT": 0
  },
  {
    "OBJECT_NAME": "UTMN 2 (RS27S)",
    "OBJECT_ID": "2023-091AP",
    "EPOCH": "2025-06-28T20:04:54.379200",
    "MEAN_MOTION": 15.22044096,
    "ECCENTRICITY": 0.0008775,
    "INCLINATION": 97.5584,
    "RA_OF_ASC_NODE": 238.8184,
    "ARG_OF_PERICENTER": 237.3526,
    "MEAN_ANOMALY": 122.6864,
    "EPHEMERIS_TYPE": 0,
    "CLASSIFICATION_TYPE": "U",
    "NORAD_CAT_ID": 57203,
    "ELEMENT_SET_NO": 999,
    "REV_AT_EPOCH": 11062,
    "BSTAR": 0.00027721,
    "MEAN_MOTION_DOT": 6.272e-05,
    "MEAN_MOTION_DDOT": 0
  },
  {
    "OBJECT_NAME": "ARCCUBE 1 (RS25S)",
    "OBJECT_ID": "2023-091AR",
    "EPOCH": "2025-06-28T19:23:33.626976",
    "MEAN_MOTION": 15.4698705,
    "ECCENTRICITY": 0.0005628,
    "INCLINATION": 97.5447,
    "RA_OF_ASC_NODE": 246.2249,
    "ARG_OF_PERICENTER": 206.6943,
    "MEAN_ANOMALY": 153.4017,
    "EPHEMERIS_TYPE": 0,
    "CLASSIFICATION_TYPE": "U",
    "NORAD_CAT_ID": 57205,
    "ELEMENT_SET_NO": 999,
    "REV_AT_EPOCH": 11114,
    "BSTAR": 0.00065303,
    "MEAN_MOTION_DOT": 0.0003297,
    "MEAN_MOTION_DDOT": 0
  },
  {
    "OBJECT_NAME": "KUZGTU 1 (RS47S)",
    "OBJECT_ID": "2023-091AV",
    "EPOCH": "2025-06-28T20:00:11.259360",
    "MEAN_MOTION": 15.20408575,
    "ECCENTRICITY": 0.0011992,
    "INCLINATION": 97.5571,
    "RA_OF_ASC_NODE": 237.1736,
    "ARG_OF_PERICENTER": 254.5927,
    "MEAN_ANOMALY": 105.3983,
    "EPHEMERIS_TYPE": 0,
    "CLASSIFICATION_TYPE": "U",
    "NORAD_CAT_ID": 57217,
    "ELEMENT_SET_NO": 999,
    "REV_AT_EPOCH": 11052,
    "BSTAR": 0.00027204,
    "MEAN_MOTION_DOT": 5.869e-05,
    "MEAN_MOTION_DDOT": 0
  }
]