STRATOSAT-TK 1 (RS52S)  
1 57167U 23091B   25179.80177794  .00026268  00000+0  62887-3 0  9995
2 57167  97.5512 243.9336 0007698 227.2774 132.7825 15.41398177110970
UMKA 1 (RS40S)          
1 57172U 23091G   25179.88724425  .00003580  00000+0  19215-3 0  9997
2 57172  97.5565 235.1699 0012693 266.6933  93.2847 15.15526221110401
CUBESX-HSE 3 (RS42S)    
1 57178U 23091N   25179.79930433  .00005587  00000+0  25451-3 0  9999
2 57178  97.5595 237.6105 0011966 252.4420 107.5508 15.21029954110530
MONITOR-3 (RS58S)       
1 57180U 23091Q   25179.84752531  .00005410  00000+0  25882-3 0  9992
2 57180  97.5590 236.8746 0012563 255.4915 104.4926 15.19340039110498
MONITOR-4 (RS57S)       
1 57182U 23091S   25179.84333387  .00005463  00000+0  26099-3 0  9997
2 57182  97.5585 236.8283 0012578 256.1702 103.8133 15.19388582110496
MONITOR-2 (RS39S)       
1 57184U 23091U   25179.83470262  .00003202  00000+0  17727-3 0  9999
2 57184  97.5594 235.3691 0010779 255.9273 104.0761 15.14524248110391
SVYATOBOR 1 (RS60S)     
1 57187U 23091X   25179.81791570  .00004585  00000+0  22114-3 0  9999
2 57187  97.5595 237.5475 0009658 244.8299 115.1934 15.19171420110534
VIZARD-METEO (RS38S)    
1 57189U 23091Z   25179.83899668  .00007190  00000+0  30094-3 0  9991
2 57189  97.5583 239.5868 0008308 234.0184 126.0283 15.23845613110676
NANOZOND 1 (RS49S)      
1 57190U 23091AA  25179.80180894  .00017165  00000+0  48363-3 0  9995
2 57190  97.5537 243.8141 0005936 218.0742 142.0083 15.36492668110965
UTMN 2 (RS27S)          
1 57203U 23091AP  25179.83674050  .00006272  00000+0  27721-3 0  9997
2 57203  97.5584 238.8184 0008775 237.3526 122.6864 15.22044096110628
ARCCUBE 1 (RS25S)       
1 57205U 23091AR  25179.80802809  .00032970  00000+0  65303-3 0  9993
2 57205  97.5447 246.2249 0005628 206.6943 153.4017 15.46987050111141
KUZGTU 1 (RS47S)        
1 57217U 23091AV  25179.83346365  .00005869  00000+0  27204-3 0  9994
2 57217  97.5571 237.1736 0011992 254.5927 105.3983 15.20408575110528
